{
  "norad_id": 64462,
  "name": "STARLINK-34336",
  "history": [
    {
      "epoch": "2026-03-28T17:52:33.327552Z",
      "apogee_km": 476.35355427303966,
      "perigee_km": 473.87130732920286,
      "latitude_deg": -2.248586046166256e-05,
      "longitude_deg": -91.72715554259837,
      "height_km": 475.99876627960384,
      "semi_major_axis_km": 6853.249430801121,
      "eccentricity": 0.0001811,
      "inclination_deg": 53.1623,
      "raan_deg": 2.5726,
      "arg_perigee_deg": 89.481,
      "mean_anomaly_deg": 270.6398,
      "mean_motion_rev_day": 15.30234376
    },
    {
      "epoch": "2026-03-29T03:16:52.163040Z",
      "apogee_km": 475.54518421777357,
      "perigee_km": 474.8201029994798,
      "latitude_deg": -2.5620897646060055e-05,
      "longitude_deg": 124.9863017356186,
      "height_km": 476.4437059735639,
      "semi_major_axis_km": 6853.319643608626,
      "eccentricity": 5.29e-05,
      "inclination_deg": 53.1625,
      "raan_deg": 0.7508,
      "arg_perigee_deg": 185.2328,
      "mean_anomaly_deg": 174.8667,
      "mean_motion_rev_day": 15.3021086
    },
    {
      "epoch": "2026-03-30T02:47:39.849216Z",
      "apogee_km": 476.38326267512457,
      "perigee_km": 474.36695941205653,
      "latitude_deg": -6.507978551123304e-05,
      "longitude_deg": 126.77232580289505,
      "height_km": 475.6798552285484,
      "semi_major_axis_km": 6853.51211104359,
      "eccentricity": 0.0001471,
      "inclination_deg": 53.1606,
      "raan_deg": 356.2012,
      "arg_perigee_deg": 53.9347,
      "mean_anomaly_deg": 306.1789,
      "mean_motion_rev_day": 15.30146401
    },
    {
      "epoch": "2026-03-30T02:47:39.850080Z",
      "apogee_km": 476.38346828048816,
      "perigee_km": 474.36675380669294,
      "latitude_deg": 1.3224224810989678e-05,
      "longitude_deg": 126.77238053150681,
      "height_km": 475.6797223211658,
      "semi_major_axis_km": 6853.51211104359,
      "eccentricity": 0.00014713,
      "inclination_deg": 53.1606,
      "raan_deg": 356.2012,
      "arg_perigee_deg": 53.9347,
      "mean_anomaly_deg": 306.179,
      "mean_motion_rev_day": 15.30146401
    },
    {
      "epoch": "2026-03-30T10:37:56.657568Z",
      "apogee_km": 476.20819311036394,
      "perigee_km": 474.45973559793765,
      "latitude_deg": 4.96901221053956e-05,
      "longitude_deg": 7.363781571339031,
      "height_km": 475.86659585613944,
      "semi_major_axis_km": 6853.470964354151,
      "eccentricity": 0.00012756,
      "inclination_deg": 53.1593,
      "raan_deg": 354.6845,
      "arg_perigee_deg": 65.2861,
      "mean_anomaly_deg": 294.8273,
      "mean_motion_rev_day": 15.30160181
    },
    {
      "epoch": "2026-03-31T21:07:08.899104Z",
      "apogee_km": 476.055967151131,
      "perigee_km": 474.2919249136221,
      "latitude_deg": -2.481396794172035e-05,
      "longitude_deg": -158.0271982882166,
      "height_km": 475.59210406423614,
      "semi_major_axis_km": 6853.310946032376,
      "eccentricity": 0.0001287,
      "inclination_deg": 53.1596,
      "raan_deg": 348.0109,
      "arg_perigee_deg": 57.018,
      "mean_anomaly_deg": 303.0944,
      "mean_motion_rev_day": 15.30213773
    },
    {
      "epoch": "2026-04-01T09:39:33.562656Z",
      "apogee_km": 476.123734527102,
      "perigee_km": 474.095173576703,
      "latitude_deg": -3.048225439876379e-05,
      "longitude_deg": 10.926626283758377,
      "height_km": 475.3411143068438,
      "semi_major_axis_km": 6853.246454051902,
      "eccentricity": 0.000148,
      "inclination_deg": 53.1601,
      "raan_deg": 345.5825,
      "arg_perigee_deg": 48.9072,
      "mean_anomaly_deg": 311.2056,
      "mean_motion_rev_day": 15.30235373
    },
    {
      "epoch": "2026-04-02T17:00:35.073792Z",
      "apogee_km": 475.8482077747285,
      "perigee_km": 474.4775477991716,
      "latitude_deg": -1.7645536909860794e-05,
      "longitude_deg": -106.68387531073212,
      "height_km": 476.0900840223498,
      "semi_major_axis_km": 6853.29987778695,
      "eccentricity": 0.0001,
      "inclination_deg": 53.1595,
      "raan_deg": 339.5158,
      "arg_perigee_deg": 92.4093,
      "mean_anomaly_deg": 267.7022,
      "mean_motion_rev_day": 15.3021748
    },
    {
      "epoch": "2026-04-02T21:42:45.004320Z",
      "apogee_km": 476.08466753364155,
      "perigee_km": 474.34007891719284,
      "latitude_deg": -1.495177347817177e-05,
      "longitude_deg": -178.32848579483075,
      "height_km": 476.2316483433387,
      "semi_major_axis_km": 6853.3493732254165,
      "eccentricity": 0.00012728,
      "inclination_deg": 53.1597,
      "raan_deg": 338.6057,
      "arg_perigee_deg": 97.988,
      "mean_anomaly_deg": 262.1265,
      "mean_motion_rev_day": 15.30200903
    },
    {
      "epoch": "2026-04-03T21:13:34.612896Z",
      "apogee_km": 476.027951075278,
      "perigee_km": 474.51197745478294,
      "latitude_deg": -4.626028459236266e-05,
      "longitude_deg": -176.5504881572409,
      "height_km": 475.8622061821542,
      "semi_major_axis_km": 6853.40696426503,
      "eccentricity": 0.0001106,
      "inclination_deg": 53.1607,
      "raan_deg": 334.0561,
      "arg_perigee_deg": 66.1685,
      "mean_anomaly_deg": 293.9431,
      "mean_motion_rev_day": 15.30181615
    },
    {
      "epoch": "2026-04-04T20:44:21.993216Z",
      "apogee_km": 475.8968320814629,
      "perigee_km": 474.416520647369,
      "latitude_deg": -4.754761418917996e-05,
      "longitude_deg": -174.77005916573808,
      "height_km": 476.6215528964405,
      "semi_major_axis_km": 6853.293676364416,
      "eccentricity": 0.000108,
      "inclination_deg": 53.1593,
      "raan_deg": 329.4996,
      "arg_perigee_deg": 139.8937,
      "mean_anomaly_deg": 220.2143,
      "mean_motion_rev_day": 15.30219557
    }
  ]
}